[{"OBJECT_NAME":"STARLINK-3112","OBJECT_ID":"2021-104P","EPOCH":"2026-03-09T17:36:56.325600","MEAN_MOTION":15.08839679,"ECCENTRICITY":0.00011236,"INCLINATION":53.216,"RA_OF_ASC_NODE":228.7282,"ARG_OF_PERICENTER":88.019,"MEAN_ANOMALY":272.0931,"EPHEMERIS_TYPE":0,"CLASSIFICATION_TYPE":"U","NORAD_CAT_ID":49421,"ELEMENT_SET_NO":999,"REV_AT_EPOCH":23863,"BSTAR":-2.9927261e-5,"MEAN_MOTION_DOT":-7.64e-6,"MEAN_MOTION_DDOT":0},{"OBJECT_NAME":"OBJECT A","OBJECT_ID":"2025-292A","EPOCH":"2026-03-09T21:45:44.016480","MEAN_MOTION":15.05451809,"ECCENTRICITY":0.00146319,"INCLINATION":97.6364,"RA_OF_ASC_NODE":145.598,"ARG_OF_PERICENTER":341.1551,"MEAN_ANOMALY":18.9132,"EPHEMERIS_TYPE":0,"CLASSIFICATION_TYPE":"U","NORAD_CAT_ID":66993,"ELEMENT_SET_NO":999,"REV_AT_EPOCH":1350,"BSTAR":0.00038878249,"MEAN_MOTION_DOT":5.535e-5,"MEAN_MOTION_DDOT":0}]
